THAICOM 5               
1 29163U 06020B   12352.80780516 -.00000128  00000-0  10000-3 0  3054
2 29163   0.0467 270.6413 0004601 353.1422 192.3215  1.00271126 24115
GALAXY 16 (G-16)        
1 29236U 06023A   12352.55092049 -.00000134  00000-0  10000-3 0  3481
2 29236   0.0026 267.9473 0003147 335.1234 302.8221  1.00271123 23837
EUTELSAT HOT BIRD 13B   
1 29270U 06032A   12352.88338080  .00000079  00000-0  10000-3 0  9543
2 29270   0.0642   4.2034 0004362 291.4743 122.2179  1.00270454 23442
JCSAT-3A                
1 29272U 06033A   12351.70782777 -.00000353  00000-0  10000-3 0  1281
2 29272   0.0122 357.6498 0001960 282.9058 188.0107  1.00269944 23321
SYRACUSE 3B             
1 29273U 06033B   12353.17870097 -.00000051  00000-0  10000-3 0   495
2 29273   0.0187  47.2455 0003334 210.2727 248.7933  1.00270609 23323
KOREASAT 5 (MUGUNGWHA 5)
1 29349U 06034A   12348.55506052  .00000000  00000-0  10000-3 0  1509
2 29349   0.0405  66.3786 0002038 206.7894 122.3252  1.00265195 20641
ZHONGXING-22A           
1 29398U 06038A   12353.22462128 -.00000318  00000-0  10000-3 0  8434
2 29398   2.6527  70.1777 0002549 209.0778 350.3247  1.00249901 23013
DIRECTV 9S              
1 29494U 06043A   12353.24901503 -.00000121  00000-0  10000-3 0  2519
2 29494   0.0042  40.2649 0002868 213.0535 182.4820  1.00270857 22687
OPTUS D1                
1 29495U 06043B   12352.60282532 -.00000118  00000-0  10000-3 0  1091
2 29495   0.0050 326.2396 0002900 295.6851 201.7135  1.00271360 22715
XM-4 (BLUES)            
1 29520U 06049A   12350.36880700 -.00000029  00000-0  10000-3 0  9761
2 29520   0.0278 193.7265 0000426 175.4213  92.7944  1.00271288 22553
BADR-4                  
1 29526U 06051A   12352.87703836  .00000137  00000-0  10000-3 0  1167
2 29526   0.0471 330.3487 0005017 314.7378 143.5282  1.00272735 22468
FENGYUN 2D              
1 29640U 06053A   12351.88212678 -.00000214  00000-0  10000-3 0  5740
2 29640   2.7651  72.8770 0000477 317.9712  99.8857  1.00272496 22127
WILDBLUE-1              
1 29643U 06054A   12352.43258089 -.00000057  00000-0  10000-3 0  8481
2 29643   0.0121  57.7959 0001220 184.9144 248.2956  1.00271121 22115
AMC-18                  
1 29644U 06054B   12350.36353525 -.00000096  00000-0  10000-3 0  2402
2 29644   0.0019 324.9362 0002826 286.3435 219.0820  1.00271921 22105
MEASAT-3                
1 29648U 06056A   12353.23791363 -.00000248  00000-0  10000-3 0  9241
2 29648   0.0251  62.1755 0001107 164.4461  37.7776  1.00271026 22145
KIKU-8 (ETS-VIII)       
1 29656U 06059A   12349.33790278 -.00000243  00000-0  10000-3 0   665
2 29656   2.3726  71.4015 0004924 201.3733  78.0114  1.00269434 21997
INSAT-4B                
1 30793U 07007A   12351.98260969 -.00000265  00000-0  10000-3 0  1515
2 30793   0.0159 316.1941 0001194 219.9338 357.1044  1.00269447 21149
SKYNET 5A               
1 30794U 07007B   12352.98702259  .00000034  00000-0  10000-3 0  9623
2 30794   0.0707 358.4731 0003095 254.2966 195.5467  1.00272962 21314
ANIK F3                 
1 31102U 07009A   12349.41311538 -.00000005  00000-0  10000-3 0   876
2 31102   0.0063 266.9831 0001684 349.9099 216.6261  1.00271117 20876
ASTRA 1L                
1 31306U 07016A   12349.00000000  .00000116  00000-0  00000+0 0  5135
2 31306   0.0960 304.6660 0003708 340.4820 177.1040  1.00267023 20614
GALAXY 17 (G-17)        
1 31307U 07016B   12349.05694486 -.00000178  00000-0  00000+0 0   525
2 31307   0.0277  64.7969 0002997 194.7223 113.1164  1.00270827 20611
EUTELSAT 3A             
1 31577U 07021A   12353.17169861  .00000013  00000-0  00000+0 0  5748
2 31577   0.0021 275.5533 0001653 290.1643 306.4185  1.00269698 20356
ZHONGXING-6B            
1 31800U 07031A   12353.18232530 -.00000368  00000-0  10000-3 0  5618
2 31800   0.0049 341.7062 0002631 292.2714 354.3869  1.00272618 20040
DIRECTV 10              
1 31862U 07032A   12349.57783642 -.00000108  00000-0  10000-3 0   471
2 31862   0.0367 201.7895 0000374 206.5639 140.5204  1.00270955 19943
SPACEWAY 3              
1 32018U 07036A   12352.32931441 -.00000159  00000-0  10000-3 0  9653
2 32018   0.0277 151.4353 0000343 349.6901 328.8414  1.00271346 19695
BSAT-3A                 
1 32019U 07036B   12348.48857709 -.00000351  00000-0  10000-3 0  8619
2 32019   0.0440 154.6949 0002588  12.0446 201.5781  1.00269095 19593
INSAT-4CR               
1 32050U 07037A   12352.61139091 -.00000085  00000-0  10000-3 0  1383
2 32050   0.0263  61.9227 0003661 196.5672 122.2688  1.00271962 19425
OPTUS D2                
1 32252U 07044A   12352.60637383 -.00000191  00000-0  10000-3 0   782
2 32252   0.0289  63.9701 0002882 195.9929 196.9530  1.00269953 19104
INTELSAT 11 (IS-11)     
1 32253U 07044B   12349.15789726 -.00000272  00000-0  10000-3 0  7820
2 32253   0.0167 274.0004 0003130  30.4561 152.6020  1.00269356 19068
STAR ONE C1             
1 32293U 07056A   12353.14811096 -.00000284  00000-0  10000-3 0  8685
2 32293   0.0247 258.1101 0001763  29.0146 148.3621  1.00270669 18736
SKYNET 5B               
1 32294U 07056B   12353.05871259  .00000092  00000-0  00000+0 0  9775
2 32294   0.0680 351.7489 0003819 261.3612 267.8297  1.00273120 18810
ASTRA 4A (SIRIUS 4)     
1 32299U 07057A   12353.17169861  .00000025  00000-0  10000-3 0  8537
2 32299   0.0106  12.8206 0002351 248.5974 252.3818  1.00271323 18662
RADUGA-1M 1             
1 32373U 07058A   12352.65814625 -.00000046  00000-0  10000-3 0  4404
2 32373   0.0211  30.9685 0001728 230.3353 132.2995  1.00271203 19302
HORIZONS-2              
1 32388U 07063B   12352.90157160 -.00000192  00000-0  10000-3 0  9045
2 32388   0.0196 354.3765 0002315 288.1631 214.0719  1.00270027 18456
THURAYA-3               
1 32404U 08001A   12352.83693233 -.00000311  00000-0  10000-3 0  9723
2 32404   4.7700 340.3046 0004702 269.8678 236.6163  1.00270233 18107
EXPRESS-AM33            
1 32478U 08003A   12353.02867748 -.00000287  00000-0  10000-3 0  3762
2 32478   0.0318 234.2243 0001182 164.4940 155.1224  1.00268740 18218
THOR 5                  
1 32487U 08006A   12351.15054029 -.00000017  00000-0  10000-3 0  9089
2 32487   0.0263 237.2850 0001886  43.7414 217.5931  1.00271138 17740
KIZUNA (WINDS)          
1 32500U 08007A   12352.66269479 -.00000266  00000-0  10000-3 0  8322
2 32500   0.0654 274.1605 0001990 343.3359 210.7476  1.00270043 17698
AMC-14                  
1 32708U 08011A   12351.99378196  .00000149  00000-0  10000-3 0   364
2 32708  15.8802  90.9146 0045024 357.9931  29.2938  1.00269923 18731
DIRECTV 11              
1 32729U 08013A   12353.14420021 -.00000132  00000-0  10000-3 0  9994
2 32729   0.0319 144.2318 0000474 293.5221 322.0791  1.00271164 17510
ICO G1                  
1 32763U 08016A   12352.48778527 -.00000180  00000-0  10000-3 0  9508
2 32763   4.5577 339.1217 0003435 282.7151 267.4318  1.00270782 17161
VINASAT-1               
1 32767U 08018A   12352.83200028 -.00000336  00000-0  10000-3 0  8770
2 32767   0.0191  11.2962 0001115 257.5665 249.4394  1.00269801 17182
STAR ONE C2             
1 32768U 08018B   12353.20936419 -.00000272  00000-0  10000-3 0  8491
2 32768   0.0384  54.5721 0002335 239.0536 158.9671  1.00269773 17222
TIANLIAN I (CTDRS-1)    
1 32779U 08019A   12353.11250703 -.00000113  00000-0  10000-3 0  3522
2 32779   0.1382 266.8682 0006776 293.9572   3.7726  1.00272746 17041
AMOS-3                  
1 32794U 08022A   12353.12234638 -.00000042  00000-0  10000-3 0  7012
2 32794   0.0250 269.1773 0000870 292.9949 284.9901  1.00269924 17024
GALAXY 18 (G-18)        
1 32951U 08024A   12349.41682049  .00000021  00000-0  10000-3 0  7284
2 32951   0.0090 240.3018 0002694  25.2907 204.9417  1.00270948 16752
CHINASAT 9 (ZX 9)       
1 33051U 08028A   12352.81302876 -.00000255  00000-0  10000-3 0  3270
2 33051   0.0131  17.1937 0004112 240.4382 214.0855  1.00270457 16602
SKYNET 5C               
1 33055U 08030A   12352.11511606 -.00000148  00000-0  10000-3 0  6929
2 33055   0.0706 338.3362 0002935 272.3032 219.1084  1.00270344 16594
TURKSAT 3A              
1 33056U 08030B   12351.21353444  .00000138  00000-0  10000-3 0  7518
2 33056   0.0091  26.8710 0002255 248.3617 288.8940  1.00272097 16631
COSMOS 2440             
1 33108U 08033A   12351.71697023 -.00000050  00000-0  10000-3 0   829
2 33108   1.6325  54.7558 0001948  23.7839 335.5765  1.00266713 16379
INTELSAT 25 (IS-25)     
1 33153U 08034A   12348.37693132 -.00000225  00000-0  10000-3 0  7703
2 33153   0.0193 356.8359 0001922 251.5763 298.2431  1.00271197 16275
BADR-6                  
1 33154U 08034B   12353.10329347  .00000137  00000-0  10000-3 0  8066
2 33154   0.0585  18.1041 0001925 286.3739 205.8005  1.00269923 16342
ECHOSTAR 11             
1 33207U 08035A   12353.14754109 -.00000064  00000-0  10000-3 0  9755
2 33207   0.0127 333.7778 0002497 297.7451 118.7514  1.00271786 16233
SUPERBIRD-C2            
1 33274U 08038A   12351.53793863 -.00000259  00000-0  10000-3 0  9636
2 33274   0.0208  36.1755 0001037 205.4518 181.5504  1.00271372 15940
AMC-21                  
1 33275U 08038B   12352.55623925  .00000028  00000-0  10000-3 0  8891
2 33275   0.0131 340.3048 0002163 284.2548 257.4127  1.00274385 16043
INMARSAT 4-F3           
1 33278U 08039A   12352.46792588 -.00000149  00000-0  10000-3 0  9747
2 33278   3.0086 345.0505 0002791 272.2290 260.0268  1.00270934 15902
NIMIQ 4                 
1 33373U 08044A   12348.34451971 -.00000221  00000-0  10000-3 0  6860
2 33373   0.0025 349.2201 0001889 292.4900 202.7615  1.00271063 15549
GALAXY 19 (G-19)        
1 33376U 08045A   12352.50734111 -.00000147  00000-0  10000-3 0  7999
2 33376   0.0087 292.8853 0002365 330.7309 268.5055  1.00271304 15530
VENESAT-1               
1 33414U 08055A   12352.48076594 -.00000245  00000-0  10000-3 0  1582
2 33414   0.0375 133.1690 0000870 156.5163 251.8705  1.00269193 15237
